[{"OBJECT_NAME":"SWAS","OBJECT_ID":"1998-071A","EPOCH":"2026-03-09T12:50:12.826752","MEAN_MOTION":15.08888192,"ECCENTRICITY":0.00040991,"INCLINATION":69.8952,"RA_OF_ASC_NODE":124.3662,"ARG_OF_PERICENTER":14.3215,"MEAN_ANOMALY":345.8065,"EPHEMERIS_TYPE":0,"CLASSIFICATION_TYPE":"U","NORAD_CAT_ID":25560,"ELEMENT_SET_NO":999,"REV_AT_EPOCH":48223,"BSTAR":0.00029986322,"MEAN_MOTION_DOT":4.636e-5,"MEAN_MOTION_DDOT":0},{"OBJECT_NAME":"STARLINK-4640","OBJECT_ID":"2022-107AE","EPOCH":"2026-03-09T21:13:34.281120","MEAN_MOTION":15.08824415,"ECCENTRICITY":0.00012121,"INCLINATION":53.2166,"RA_OF_ASC_NODE":253.2017,"ARG_OF_PERICENTER":96.1945,"MEAN_ANOMALY":263.9186,"EPHEMERIS_TYPE":0,"CLASSIFICATION_TYPE":"U","NORAD_CAT_ID":53728,"ELEMENT_SET_NO":999,"REV_AT_EPOCH":19458,"BSTAR":0.00011123805,"MEAN_MOTION_DOT":1.482e-5,"MEAN_MOTION_DDOT":0}]
